NORAD_CAT_ID,OBJECT_NAME,OBJECT_TYPE,EPOCH,MEAN_MOTION,ECCENTRICITY,INCLINATION,RA_OF_ASC_NODE,ARG_OF_PERICENTER,MEAN_ANOMALY,BSTAR,MEAN_MOTION_DOT,MEAN_MOTION_DDOT,TLE_LINE0,TLE_LINE1,TLE_LINE2,SEMIMAJOR_AXIS,PERIOD,APOGEE,PERIGEE,DECAYED
55289.0,STARLINK-5320,PAYLOAD,2023-08-12 10:04:13,14.98329054,0.0003605,69.9989,235.2933,268.4756,91.599,-5.4604e-06,-1.58e-06,0.0,0 STARLINK-5320,1 55289U 23010W   23224.41960409 -.00000158  00000-0 -54604-5 0  9991,2 55289  69.9989 235.2933 0003605 268.4756  91.5990 14.98329054 32115,6950.196,96.107,574.566,569.555,0.0
55289.0,STARLINK-5320,PAYLOAD,2023-08-13 18:06:54,14.98330779,0.0003609,69.9989,231.9265,268.0995,91.975,3.5241e-06,-5.1e-07,0.0,0 STARLINK-5320,1 55289U 23010W   23225.75480225 -.00000051  00000-0  35241-5 0  9999,2 55289  69.9989 231.9265 0003609 268.0995  91.9750 14.98330779 32317,6950.19,96.107,574.564,569.547,0.0
55289.0,STARLINK-5320,PAYLOAD,2023-08-14 10:08:14,14.98343573,0.0003678,69.9988,230.2435,269.1677,90.9061,0.00014466,1.634e-05,0.0,0 STARLINK-5320,1 55289U 23010W   23226.42238676  .00001634  00000-0  14466-3 0  9996,2 55289  69.9988 230.2435 0003678 269.1677  90.9061 14.98343573 32413,6950.151,96.106,574.572,569.46,0.0
55289.0,STARLINK-5320,PAYLOAD,2023-08-14 18:08:54,14.98338617,0.0003622,69.999,229.4006,269.2938,90.7806,7.7384e-05,8.31e-06,0.0,0 STARLINK-5320,1 55289U 23010W   23226.75618911  .00000831  00000-0  77384-4 0  9993,2 55289  69.9990 229.4006 0003622 269.2938  90.7806 14.98338617 32463,6950.166,96.106,574.549,569.514,0.0
55289.0,STARLINK-5320,PAYLOAD,2023-08-15 02:09:35,14.98331296,0.0003558,69.9987,228.5605,270.1547,89.9204,-1.8175e-06,-1.15e-06,0.0,0 STARLINK-5320,1 55289U 23010W   23227.08999603 -.00000115  00000-0 -18175-5 0  9991,2 55289  69.9987 228.5605 0003558 270.1547  89.9204 14.98331296 32513,6950.189,96.107,574.527,569.581,0.0
55289.0,STARLINK-5320,PAYLOAD,2023-08-16 02:11:36,14.98333623,0.0003523,69.9998,226.0356,270.3838,89.6917,-0.00014798,-1.859e-05,0.0,0 STARLINK-5320,1 55289U 23010W   23228.09139806 -.00001859  00000-0 -14798-3 0  9995,2 55289  69.9998 226.0356 0003523 270.3838  89.6917 14.98333623 32668,6950.182,96.107,574.495,569.598,0.0
55289.0,STARLINK-5320,PAYLOAD,2023-08-17 02:13:37,14.98325581,0.0003556,69.9999,223.5108,271.7606,88.3146,1.5055e-05,8.7e-07,0.0,0 STARLINK-5320,1 55289U 23010W   23229.09279814  .00000087  00000-0  15055-4 0  9998,2 55289  69.9999 223.5108 0003556 271.7606  88.3146 14.98325581 32811,6950.207,96.107,574.543,569.6,0.0
55289.0,STARLINK-5320,PAYLOAD,2023-08-18 03:51:46,14.98327862,0.000352,70.0,220.818,270.2591,89.8164,4.371e-05,4.28e-06,0.0,0 STARLINK-5320,1 55289U 23010W   23230.16095773  .00000428  00000-0  43710-4 0  9996,2 55289  70.0000 220.8180 0003520 270.2591  89.8164 14.98327862 32972,6950.2,96.107,574.511,569.618,0.0
55289.0,STARLINK-5320,PAYLOAD,2023-08-19 05:29:56,14.98326964,0.0003501,70.0001,218.125,269.7631,90.3127,-1.4922e-05,-2.71e-06,0.0,0 STARLINK-5320,1 55289U 23010W   23231.22912111 -.00000271  00000-0 -14922-4 0  9999,2 55289  70.0001 218.1250 0003501 269.7631  90.3127 14.98326964 33135,6950.202,96.107,574.501,569.634,0.0
55289.0,STARLINK-5320,PAYLOAD,2023-08-20 08:44:13,14.98329342,0.000344,70.0002,215.264,269.6693,90.4072,3.2244e-06,-5.5e-07,0.0,0 STARLINK-5320,1 55289U 23010W   23232.36404001 -.00000055  00000-0  32244-5 0  9996,2 55289  70.0002 215.2640 0003440 269.6693  90.4072 14.98329342 33308,6950.195,96.107,574.451,569.669,0.0
55289.0,STARLINK-5320,PAYLOAD,2023-08-21 08:46:13,14.98330974,0.0003412,70.0002,212.7391,269.3344,90.7424,5.1567e-05,5.22e-06,0.0,0 STARLINK-5320,1 55289U 23010W   23233.36543745  .00000522  00000-0  51567-4 0  9992,2 55289  70.0002 212.7391 0003412 269.3344  90.7424 14.98330974 33455,6950.19,96.107,574.426,569.683,0.0
55289.0,STARLINK-5320,PAYLOAD,2023-08-22 08:48:14,14.98330954,0.0003356,70.0003,210.2147,268.4398,91.6377,2.2987e-05,1.81e-06,0.0,0 STARLINK-5320,1 55289U 23010W   23234.36683770  .00000181  00000-0  22987-4 0  9991,2 55289  70.0003 210.2147 0003356 268.4398  91.6377 14.98330954 33606,6950.19,96.107,574.387,569.722,0.0
55289.0,STARLINK-5320,PAYLOAD,2023-08-24 07:16:08,14.98332542,0.0003355,70.0007,205.3339,264.3687,95.709,2.4043e-05,1.94e-06,0.0,0 STARLINK-5320,1 55289U 23010W   23236.30287563  .00000194  00000-0  24043-4 0  9996,2 55289  70.0007 205.3339 0003355 264.3687  95.7090 14.98332542 34202,6950.185,96.107,574.382,569.718,0.0
55289.0,STARLINK-5320,PAYLOAD,2023-08-25 02:29:45,14.98328591,0.0003273,70.0008,203.3141,264.7653,95.3133,-1.7325e-05,-3e-06,0.0,0 STARLINK-5320,1 55289U 23010W   23237.10399869 -.00000300  00000-0 -17325-4 0  9994,2 55289  70.0008 203.3141 0003273 264.7653  95.3133 14.98328591 34010,6950.197,96.107,574.337,569.787,0.0
55289.0,STARLINK-5320,PAYLOAD,2023-08-25 07:18:09,14.98330269,0.0003289,70.0009,202.8087,269.1068,90.9714,-1.2221e-06,-1.08e-06,0.0,0 STARLINK-5320,1 55289U 23010W   23237.30427753 -.00000108  00000-0 -12221-5 0  9997,2 55289  70.0009 202.8087 0003289 269.1068  90.9714 14.98330269 34358,6950.192,96.107,574.343,569.771,0.0
55289.0,STARLINK-5320,PAYLOAD,2023-08-26 02:31:47,14.98286299,0.0002283,70.001,200.7896,257.8994,102.1909,0.00071872,8.483e-05,0.0,0 STARLINK-5320,1 55289U 23010W   23238.10540793  .00008483  00000-0  71872-3 0  9993,2 55289  70.0010 200.7896 0002283 257.8994 102.1909 14.98286299 34164,6950.328,96.11,573.78,570.606,0.0
55289.0,STARLINK-5320,PAYLOAD,2023-08-26 05:44:25,14.98107635,0.0002412,70.0013,200.4551,209.8244,150.2778,-0.0044701,-0.00052724,0.0,0 STARLINK-5320,1 55289U 23010W   23238.23918252 -.00052724  00000-0 -44701-2 0  9995,2 55289  70.0013 200.4551 0002412 209.8244 150.2778 14.98107635 34187,6950.881,96.121,574.422,571.069,0.0
55289.0,STARLINK-5320,PAYLOAD,2023-08-26 18:33:07,14.98325812,0.0003268,70.0008,199.1065,272.3663,87.7122,-1.5162e-05,-2.74e-06,0.0,0 STARLINK-5320,1 55289U 23010W   23238.77300144 -.00000274  00000-0 -15162-4 0  9993,2 55289  70.0008 199.1065 0003268 272.3663  87.7122 14.98325812 34260,6950.206,96.107,574.342,569.8,0.0
55289.0,STARLINK-5320,PAYLOAD,2023-08-26 21:45:21,14.98366321,0.0003318,70.0008,198.7701,274.165,85.913,3.9356e-05,3.77e-06,0.0,0 STARLINK-5320,1 55289U 23010W   23238.90649791  .00000377  00000-0  39356-4 0  9995,2 55289  70.0008 198.7701 0003318 274.1650  85.9130 14.98366321 34599,6950.081,96.105,574.252,569.64,0.0
55289.0,STARLINK-5320,PAYLOAD,2023-08-27 07:22:11,14.98333563,0.0003204,70.0007,197.7594,270.3665,89.7127,2.5071e-05,2.06e-06,0.0,0 STARLINK-5320,1 55289U 23010W   23239.30707407  .00000206  00000-0  25071-4 0  9999,2 55289  70.0007 197.7594 0003204 270.3665  89.7127 14.98333563 34348,6950.182,96.107,574.274,569.82,0.0
55289.0,STARLINK-5320,PAYLOAD,2023-08-28 07:24:12,14.98332537,0.000319,70.0008,195.2349,270.4295,89.6499,2.4183e-05,1.96e-06,0.0,0 STARLINK-5320,1 55289U 23010W   23240.30847382  .00000196  00000-0  24183-4 0  9999,2 55289  70.0008 195.2349 0003190 270.4295  89.6499 14.98332537 34491,6950.185,96.107,574.267,569.833,0.0
55289.0,STARLINK-5320,PAYLOAD,2023-08-28 20:13:17,14.98325065,0.0003163,70.0009,193.8885,271.0178,89.0619,-4.0885e-05,-5.81e-06,0.0,0 STARLINK-5320,1 55289U 23010W   23240.84256003 -.00000581  00000-0 -40885-4 0  9999,2 55289  70.0009 193.8885 0003163 271.0178  89.0619 14.98325065 34887,6950.208,96.107,574.272,569.875,0.0
55289.0,STARLINK-5320,PAYLOAD,2023-08-29 01:01:41,14.98326672,0.0003156,70.0009,193.3836,271.0707,89.0091,-2.4259e-05,-3.82e-06,0.0,0 STARLINK-5320,1 55289U 23010W   23241.04283895 -.00000382  00000-0 -24259-4 0  9997,2 55289  70.0009 193.3836 0003156 271.0707  89.0091 14.98326672 34607,6950.203,96.107,574.262,569.875,0.0
55289.0,STARLINK-5320,PAYLOAD,2023-08-29 13:50:45,14.98328064,0.0002921,70.0016,192.0377,264.2921,95.7905,-1.8821e-05,-3.18e-06,0.0,0 STARLINK-5320,1 55289U 23010W   23241.57691809 -.00000318  00000-0 -18821-4 0  9990,2 55289  70.0016 192.0377 0002921 264.2921  95.7905 14.98328064 34999,6950.199,96.107,574.094,570.034,0.0
55289.0,STARLINK-5320,PAYLOAD,2023-08-30 01:03:42,14.98327498,0.0002936,70.0015,190.8595,267.747,92.3353,6.9217e-06,-1e-07,0.0,0 STARLINK-5320,1 55289U 23010W   23242.04423761 -.00000010  00000-0  69217-5 0  9997,2 55289  70.0015 190.8595 0002936 267.7470  92.3353 14.98327498 34753,6950.201,96.107,574.106,570.025,0.0
55289.0,STARLINK-5320,PAYLOAD,2023-08-30 13:52:46,14.98329755,0.0002935,70.0016,189.5133,269.9334,90.1488,2.4016e-05,1.94e-06,0.0,0 STARLINK-5320,1 55289U 23010W   23242.57831594  .00000194  00000-0  24016-4 0  9991,2 55289  70.0016 189.5133 0002935 269.9334  90.1488 14.98329755 35146,6950.194,96.107,574.099,570.019,0.0
55289.0,STARLINK-5320,PAYLOAD,2023-08-31 02:41:51,14.98331925,0.0002677,70.0019,188.1674,268.8876,91.1976,-2.8274e-05,-4.3e-06,0.0,0 STARLINK-5320,1 55289U 23010W   23243.11239676 -.00000430  00000-0 -28274-4 0  9990,2 55289  70.0019 188.1674 0002677 268.8876  91.1976 14.98331925 34915,6950.187,96.107,573.913,570.191,0.0
55289.0,STARLINK-5320,PAYLOAD,2023-08-31 05:54:07,14.98329812,0.000307,70.0021,187.8324,270.1599,89.9209,4.4024e-05,4.32e-06,0.0,0 STARLINK-5320,1 55289U 23010W   23243.24591466  .00000432  00000-0  44024-4 0  9993,2 55289  70.0021 187.8324 0003070 270.1599  89.9209 14.98329812 35245,6950.193,96.107,574.192,569.925,0.0
55289.0,STARLINK-5320,PAYLOAD,2023-09-01 05:56:08,14.98321148,0.0003201,70.0024,185.3101,269.8472,90.232,8.9488e-05,9.75e-06,0.0,0 STARLINK-5320,1 55289U 23010W   23244.24731922  .00000975  00000-0  89488-4 0  9992,2 55289  70.0024 185.3101 0003201 269.8472  90.2320 14.98321148 35080,6950.22,96.108,574.31,569.86,0.0
55289.0,STARLINK-5320,PAYLOAD,2023-09-01 13:56:49,14.98330165,0.0001084,70.0056,184.4651,304.5937,55.512,3.0499e-06,-5.6e-07,0.0,0 STARLINK-5320,1 55289U 23010W   23244.58112497 -.00000056  00000-0  30499-5 0  9999,2 55289  70.0056 184.4651 0001084 304.5937  55.5120 14.98330165 35446,6950.192,96.107,572.811,571.304,0.0
